NORAD_CAT_ID,OBJECT_NAME,OBJECT_TYPE,EPOCH,MEAN_MOTION,ECCENTRICITY,INCLINATION,RA_OF_ASC_NODE,ARG_OF_PERICENTER,MEAN_ANOMALY,BSTAR,MEAN_MOTION_DOT,MEAN_MOTION_DDOT,TLE_LINE0,TLE_LINE1,TLE_LINE2,SEMIMAJOR_AXIS,PERIOD,APOGEE,PERIGEE,DECAYED
56803.0,STARLINK-6029,PAYLOAD,2024-05-26 04:42:43,14.98333007,0.0003143,69.9988,189.5979,268.472,91.6079,8.6083e-05,9.34e-06,0.0,0 STARLINK-6029,1 56803U 23078AN  24147.19633351  .00000934  00000-0  86083-4 0  9996,2 56803  69.9988 189.5979 0003143 268.4720  91.6079 14.98333007 55203,6950.184,96.107,574.233,569.864,0.0
56803.0,STARLINK-6029,PAYLOAD,2024-05-26 12:43:23,14.98335945,0.0003165,69.9996,188.7566,271.064,89.0157,0.00013695,1.542e-05,0.0,0 STARLINK-6029,1 56803U 23078AN  24147.53013150  .00001542  00000-0  13695-3 0  9997,2 56803  69.9996 188.7566 0003165 271.0640  89.0157 14.98335945 54996,6950.175,96.107,574.239,569.84,0.0
56803.0,STARLINK-6029,PAYLOAD,2024-05-27 04:44:44,14.98330202,0.0003143,69.9996,187.0733,269.3508,90.7291,0.00037029,4.328e-05,0.0,0 STARLINK-6029,1 56803U 23078AN  24148.19773495  .00004328  00000-0  37029-3 0  9997,2 56803  69.9996 187.0733 0003143 269.3508  90.7291 14.98330202 55353,6950.192,96.107,574.242,569.873,0.0
56803.0,STARLINK-6029,PAYLOAD,2024-05-27 12:45:24,14.98333207,0.0003081,69.9998,186.2322,270.897,89.1836,0.00022744,2.622e-05,0.0,0 STARLINK-6029,1 56803U 23078AN  24148.53153294  .00002622  00000-0  22744-3 0  9997,2 56803  69.9998 186.2322 0003081 270.8970  89.1836 14.98333207 55143,6950.183,96.107,574.189,569.907,0.0
56803.0,STARLINK-6029,PAYLOAD,2024-05-28 04:46:44,14.98335437,0.0003025,70.0,184.549,270.022,90.0592,0.00010896,1.207e-05,0.0,0 STARLINK-6029,1 56803U 23078AN  24149.19913056  .00001207  00000-0  10896-3 0  9993,2 56803  70.0000 184.5490 0003025 270.0220  90.0592 14.98335437 55502,6950.176,96.107,574.144,569.939,0.0
56803.0,STARLINK-6029,PAYLOAD,2024-05-28 12:47:25,14.98333804,0.0003034,69.9991,183.7074,270.049,90.0321,9.9657e-05,1.096e-05,0.0,0 STARLINK-6029,1 56803U 23078AN  24149.53293188  .00001096  00000-0  99657-4 0  9997,2 56803  69.9991 183.7074 0003034 270.0490  90.0321 14.98333804 55298,6950.181,96.107,574.155,569.937,0.0
56803.0,STARLINK-6029,PAYLOAD,2024-05-29 04:48:45,14.98333584,0.0003035,69.999,182.0241,269.1294,90.9518,9.5947e-05,1.052e-05,0.0,0 STARLINK-6029,1 56803U 23078AN  24150.20052980  .00001052  00000-0  95947-4 0  9996,2 56803  69.9990 182.0241 0003035 269.1294  90.9518 14.98333584 55659,6950.182,96.107,574.156,569.937,0.0
56803.0,STARLINK-6029,PAYLOAD,2024-05-29 11:13:18,14.98332932,0.0003054,69.9989,181.3508,269.0145,91.0664,7.0577e-05,7.49e-06,0.0,0 STARLINK-6029,1 56803U 23078AN  24150.46756974  .00000749  00000-0  70577-4 0  9992,2 56803  69.9989 181.3508 0003054 269.0145  91.0664 14.98332932 55436,6950.184,96.107,574.171,569.926,0.0
56803.0,STARLINK-6029,PAYLOAD,2024-05-30 04:50:46,14.9833356,0.0003092,69.9987,179.4994,267.8309,92.2496,8.2482e-05,8.91e-06,0.0,0 STARLINK-6029,1 56803U 23078AN  24151.20192889  .00000891  00000-0  82482-4 0  9990,2 56803  69.9987 179.4994 0003092 267.8309  92.2496 14.98333560 55806,6950.182,96.107,574.196,569.898,0.0
56803.0,STARLINK-6029,PAYLOAD,2024-05-30 11:15:18,14.98333458,0.0003119,69.9986,178.8257,270.4884,89.5918,6.9707e-05,7.39e-06,0.0,0 STARLINK-6029,1 56803U 23078AN  24151.46896857  .00000739  00000-0  69707-4 0  9990,2 56803  69.9986 178.8257 0003119 270.4884  89.5918 14.98333458 55587,6950.182,96.107,574.215,569.879,0.0
56803.0,STARLINK-6029,PAYLOAD,2024-05-31 04:52:47,14.98332712,0.0003131,69.9984,176.974,270.4615,89.6185,6.9703e-05,7.39e-06,0.0,0 STARLINK-6029,1 56803U 23078AN  24152.20332856  .00000739  00000-0  69703-4 0  9993,2 56803  69.9984 176.9740 0003131 270.4615  89.6185 14.98332712 55957,6950.185,96.107,574.226,569.873,0.0
56803.0,STARLINK-6029,PAYLOAD,2024-05-31 11:17:19,14.98332227,0.0003137,69.9984,176.3007,270.4191,89.6608,5.5605e-05,5.71e-06,0.0,0 STARLINK-6029,1 56803U 23078AN  24152.47036868  .00000571  00000-0  55605-4 0  9996,2 56803  69.9984 176.3007 0003137 270.4191  89.6608 14.98332227 55739,6950.186,96.107,574.231,569.871,0.0
56803.0,STARLINK-6029,PAYLOAD,2024-05-31 19:18:00,14.98331983,0.0003148,69.9983,175.4589,269.6006,90.4792,5.8378e-05,6.04e-06,0.0,0 STARLINK-6029,1 56803U 23078AN  24152.80416809  .00000604  00000-0  58378-4 0  9997,2 56803  69.9983 175.4589 0003148 269.6006  90.4792 14.98331983 55787,6950.187,96.107,574.24,569.864,0.0
56803.0,STARLINK-6029,PAYLOAD,2024-06-01 04:54:48,14.98332516,0.0003161,69.9982,174.4488,269.3231,90.7566,7.3277e-05,7.81e-06,0.0,0 STARLINK-6029,1 56803U 23078AN  24153.20472688  .00000781  00000-0  73277-4 0  9990,2 56803  69.9982 174.4488 0003161 269.3231  90.7566 14.98332516 56107,6950.185,96.107,574.247,569.853,0.0
56803.0,STARLINK-6029,PAYLOAD,2024-06-01 11:19:20,14.98333276,0.0003167,69.9982,173.7756,269.6314,90.4482,7.8276e-05,8.41e-06,0.0,0 STARLINK-6029,1 56803U 23078AN  24153.47176600  .00000841  00000-0  78276-4 0  9995,2 56803  69.9982 173.7756 0003167 269.6314  90.4482 14.98333276 55880,6950.183,96.107,574.249,569.847,0.0
56803.0,STARLINK-6029,PAYLOAD,2024-06-02 04:56:49,14.98330194,0.0003165,69.9981,171.9241,269.4862,90.5935,6.4328e-05,6.75e-06,0.0,0 STARLINK-6029,1 56803U 23078AN  24154.20612820  .00000675  00000-0  64328-4 0  9994,2 56803  69.9981 171.9241 0003165 269.4862  90.5935 14.98330194 56254,6950.192,96.107,574.257,569.858,0.0
56803.0,STARLINK-6029,PAYLOAD,2024-06-02 11:21:21,14.98329412,0.0003184,69.9982,171.2509,269.673,90.4064,4.5019e-05,4.44e-06,0.0,0 STARLINK-6029,1 56803U 23078AN  24154.47316930  .00000444  00000-0  45019-4 0  9996,2 56803  69.9982 171.2509 0003184 269.6730  90.4064 14.98329412 56031,6950.195,96.107,574.273,569.847,0.0
56803.0,STARLINK-6029,PAYLOAD,2024-06-03 04:58:51,14.98323281,0.0003182,69.9984,169.3994,269.5812,90.4983,-2.8161e-05,-4.29e-06,0.0,0 STARLINK-6029,1 56803U 23078AN  24155.20753739 -.00000429  00000-0 -28161-4 0  9994,2 56803  69.9984 169.3994 0003182 269.5812  90.4983 14.98323281 56406,6950.214,96.107,574.29,569.867,0.0
56803.0,STARLINK-6029,PAYLOAD,2024-06-03 11:23:24,14.98318139,0.0003178,69.9983,168.7261,269.8265,90.253,-9.8807e-05,-1.271e-05,0.0,0 STARLINK-6029,1 56803U 23078AN  24155.47458392 -.00001271  00000-0 -98807-4 0  9990,2 56803  69.9983 168.7261 0003178 269.8265  90.2530 14.98318139 56182,6950.23,96.108,574.303,569.886,0.0
56803.0,STARLINK-6029,PAYLOAD,2024-06-03 17:47:56,14.98321576,0.0003347,69.998,168.0531,267.6082,92.4694,-3.9483e-05,-5.64e-06,0.0,0 STARLINK-6029,1 56803U 23078AN  24155.74162129 -.00000564  00000-0 -39483-4 0  9999,2 56803  69.9980 168.0531 0003347 267.6082  92.4694 14.98321576 56222,6950.219,96.108,574.41,569.758,0.0
56803.0,STARLINK-6029,PAYLOAD,2024-06-04 09:49:16,14.98324957,0.0003296,69.9981,166.3695,268.7772,91.301,2.9577e-05,2.6e-06,0.0,0 STARLINK-6029,1 56803U 23078AN  24156.40922142  .00000260  00000-0  29577-4 0  9996,2 56803  69.9981 166.3695 0003296 268.7772  91.3010 14.98324957 56581,6950.208,96.107,574.364,569.783,0.0
56803.0,STARLINK-6029,PAYLOAD,2024-06-04 17:49:57,14.98326019,0.0003291,69.9981,165.5277,268.156,91.9222,6.5405e-05,6.87e-06,0.0,0 STARLINK-6029,1 56803U 23078AN  24156.74302148  .00000687  00000-0  65405-4 0  9994,2 56803  69.9981 165.5277 0003291 268.1560  91.9222 14.98326019 56371,6950.205,96.107,574.358,569.783,0.0
56803.0,STARLINK-6029,PAYLOAD,2024-06-05 09:51:17,14.9832314,0.000336,69.998,163.8442,268.1987,91.8788,0.00022539,2.597e-05,0.0,0 STARLINK-6029,1 56803U 23078AN  24157.41062321  .00002597  00000-0  22539-3 0  9997,2 56803  69.9980 163.8442 0003360 268.1987  91.8788 14.98323140 56733,6950.214,96.107,574.414,569.744,0.0
56803.0,STARLINK-6029,PAYLOAD,2024-06-05 17:51:58,14.98327488,0.0003309,69.9982,163.0026,265.6577,94.4204,0.00020894,2.401e-05,0.0,0 STARLINK-6029,1 56803U 23078AN  24157.74442210  .00002401  00000-0  20894-3 0  9998,2 56803  69.9982 163.0026 0003309 265.6577  94.4204 14.98327488 56523,6950.201,96.107,574.365,569.766,0.0
56803.0,STARLINK-6029,PAYLOAD,2024-06-06 05:04:54,14.98333711,0.0003298,69.9981,161.8243,266.7297,93.3485,0.00016821,1.915e-05,0.0,0 STARLINK-6029,1 56803U 23078AN  24158.21173938  .00001915  00000-0  16821-3 0  9993,2 56803  69.9981 161.8243 0003298 266.7297  93.3485 14.98333711 56858,6950.181,96.107,574.339,569.754,0.0
56803.0,STARLINK-6029,PAYLOAD,2024-06-06 09:53:18,14.98336454,0.0003281,69.9981,161.3194,266.492,93.5864,0.00018697,2.139e-05,0.0,0 STARLINK-6029,1 56803U 23078AN  24158.41201742  .00002139  00000-0  18697-3 0  9992,2 56803  69.9981 161.3194 0003281 266.4920  93.5864 14.98336454 56625,6950.173,96.107,574.318,569.758,0.0
56803.0,STARLINK-6029,PAYLOAD,2024-06-07 00:18:30,14.98342544,0.000329,69.9982,159.8046,266.2683,93.81,0.00019324,2.214e-05,0.0,0 STARLINK-6029,1 56803U 23078AN  24159.01285098  .00002214  00000-0  19324-3 0  9997,2 56803  69.9982 159.8046 0003290 266.2683  93.8100 14.98342544 56979,6950.154,96.106,574.306,569.732,0.0
56803.0,STARLINK-6029,PAYLOAD,2024-06-07 08:19:10,14.98346092,0.000329,69.9983,158.963,266.2883,93.79,0.00021124,2.429e-05,0.0,0 STARLINK-6029,1 56803U 23078AN  24159.34664680  .00002429  00000-0  21124-3 0  9990,2 56803  69.9983 158.9630 0003290 266.2883  93.7900 14.98346092 56767,6950.143,96.106,574.295,569.722,0.0
56803.0,STARLINK-6029,PAYLOAD,2024-06-08 05:08:55,14.98339072,0.0003264,69.9985,156.7748,266.3954,93.6832,5.387e-05,5.5e-06,0.0,0 STARLINK-6029,1 56803U 23078AN  24160.21452794  .00000550  00000-0  53870-4 0  9996,2 56803  69.9985 156.7748 0003264 266.3954  93.6832 14.98339072 57153,6950.165,96.106,574.298,569.761,0.0
56803.0,STARLINK-6029,PAYLOAD,2024-06-08 13:09:35,14.98341201,0.0003273,69.9984,155.9332,266.9509,93.1275,4.4056e-05,4.33e-06,0.0,0 STARLINK-6029,1 56803U 23078AN  24160.54832328  .00000433  00000-0  44056-4 0  9993,2 56803  69.9984 155.9332 0003273 266.9509  93.1275 14.98341201 56943,6950.158,96.106,574.298,569.748,0.0
